{
  "norad_id": 57614,
  "name": "STARLINK-30244",
  "history": [
    {
      "epoch": "2026-05-02T09:50:11.739840Z",
      "apogee_km": 483.73946123385394,
      "perigee_km": 482.34252539441604,
      "latitude_deg": -3.4777203394327486e-05,
      "longitude_deg": 130.18874401011632,
      "height_km": 482.88405830524624,
      "semi_major_axis_km": 6861.177993314135,
      "eccentricity": 0.0001018,
      "inclination_deg": 43.0013,
      "raan_deg": 138.066,
      "arg_perigee_deg": 264.5322,
      "mean_anomaly_deg": 95.5413,
      "mean_motion_rev_day": 15.27582706
    },
    {
      "epoch": "2026-05-03T07:48:23.068800Z",
      "apogee_km": 484.2687348734944,
      "perigee_km": 481.86758751528305,
      "latitude_deg": 2.4333617512756443e-05,
      "longitude_deg": 154.56603256707373,
      "height_km": 482.75484492259534,
      "semi_major_axis_km": 6861.205161194389,
      "eccentricity": 0.00017498,
      "inclination_deg": 43.0008,
      "raan_deg": 132.8927,
      "arg_perigee_deg": 274.3181,
      "mean_anomaly_deg": 85.7471,
      "mean_motion_rev_day": 15.27573633
    },
    {
      "epoch": "2026-05-04T08:54:53.788896Z",
      "apogee_km": 483.9063831557987,
      "perigee_km": 482.24555794414664,
      "latitude_deg": 3.6837206904222494e-05,
      "longitude_deg": 131.00077132201216,
      "height_km": 483.010058979552,
      "semi_major_axis_km": 6861.212970549972,
      "eccentricity": 0.00012103,
      "inclination_deg": 43.0008,
      "raan_deg": 126.9866,
      "arg_perigee_deg": 259.0667,
      "mean_anomaly_deg": 101.0049,
      "mean_motion_rev_day": 15.27571025
    }
  ]
}